NORAD_CAT_ID,OBJECT_NAME,OBJECT_TYPE,EPOCH,MEAN_MOTION,ECCENTRICITY,INCLINATION,RA_OF_ASC_NODE,ARG_OF_PERICENTER,MEAN_ANOMALY,BSTAR,MEAN_MOTION_DOT,MEAN_MOTION_DDOT,TLE_LINE0,TLE_LINE1,TLE_LINE2,SEMIMAJOR_AXIS,PERIOD,APOGEE,PERIGEE,DECAYED
51748.0,STARLINK-3501,PAYLOAD,2022-09-27 13:13:00,15.088449800000005,0.0002037,53.2172,201.6258,50.61600000000001,309.5012,8.7134e-05,1.099e-05,0.0,0 STARLINK-3501,1 51748U 22016AL  22270.55070439  .00001099  00000-0  87134-4 0  9998,2 51748  53.2172 201.6258 0002037  50.6160 309.5012 15.08844980 33611,6917.865,95.437,541.139,538.321,0.0
51748.0,STARLINK-3501,PAYLOAD,2022-09-28 01:56:06,15.08818259,0.0002104,53.2173,199.2458,56.7327,303.3866,0.000373,5.65e-05,0.0,0 STARLINK-3501,1 51748U 22016AL  22271.08063267  .00005650  00000-0  37300-3 0  9994,2 51748  53.2173 199.2458 0002104  56.7327 303.3866 15.08818259 33690,6917.946999999999,95.439,541.2669999999998,538.356,0.0
51748.0,STARLINK-3501,PAYLOAD,2022-09-29 03:22:16,15.08845575,0.0001835,53.2173,194.4863,60.4725,299.645,4.5874e-05,4.42e-06,0.0,0 STARLINK-3501,1 51748U 22016AL  22272.14046587  .00000442  00000-0  45874-4 0  9998,2 51748  53.2173 194.4863 0001835  60.4725 299.6450 15.08845575 34914,6917.863,95.437,540.998,538.4590000000002,0.0
51748.0,STARLINK-3501,PAYLOAD,2022-09-29 04:57:39,15.08845282,0.0001857,53.2174,194.1892,59.86,300.2576,4.3015e-05,3.97e-06,0.0,0 STARLINK-3501,1 51748U 22016AL  22272.20670592  .00000397  00000-0  43015-4 0  9998,2 51748  53.2174 194.1892 0001857  59.8600 300.2576 15.08845282 33868,6917.864000000001,95.437,541.014,538.445,0.0
51748.0,STARLINK-3501,PAYLOAD,2022-09-30 04:48:26,15.08843041,0.0001771,53.2173,189.7321,57.4757,302.6406,7.7592e-05,9.47e-06,0.0,0 STARLINK-3501,1 51748U 22016AL  22273.20030708  .00000947  00000-0  77592-4 0  9996,2 51748  53.2173 189.7321 0001771  57.4757 302.6406 15.08843041 34013,6917.871,95.437,540.961,538.511,0.0
51748.0,STARLINK-3501,PAYLOAD,2022-10-01 03:03:50,15.08839438,0.0001909,53.2171,185.5677,48.6404,311.4752,-2.1868e-06,-3.23e-06,0.0,0 STARLINK-3501,1 51748U 22016AL  22274.12767320 -.00000323  00000-0 -21868-5 0  9991,2 51748  53.2171 185.5677 0001909  48.6404 311.4752 15.08839438 35213,6917.882,95.438,541.068,538.4259999999998,0.0
51748.0,STARLINK-3501,PAYLOAD,2022-10-01 11:00:46,15.08844334,0.0001834,53.2177,184.0798,54.3094,305.8069,8.473399999999999e-05,1.061e-05,0.0,0 STARLINK-3501,1 51748U 22016AL  22274.45886745  .00001061  00000-0  84734-4 0  9998,2 51748  53.2177 184.0798 0001834  54.3094 305.8069 15.08844334 34200,6917.8669999999975,95.437,541.001,538.4630000000002,0.0
51748.0,STARLINK-3501,PAYLOAD,2022-10-02 04:30:01,15.08841904,0.0001893,53.2172,180.8099,46.6964,313.4186,1.6414000000000002e-05,-2.7e-07,0.0,0 STARLINK-3501,1 51748U 22016AL  22275.18751169 -.00000027  00000-0  16414-4 0  9992,2 51748  53.2172 180.8099 0001893  46.6964 313.4186 15.08841904 35372,6917.875,95.437,541.049,538.43,0.0
51748.0,STARLINK-3501,PAYLOAD,2022-10-02 10:51:33,15.0883841,0.0001825,53.2166,179.6199,46.2866,313.8277,-4.7636e-06,-3.64e-06,0.0,0 STARLINK-3501,1 51748U 22016AL  22275.45247444 -.00000364  00000-0 -47636-5 0  9994,2 51748  53.2166 179.6199 0001825  46.2866 313.8277 15.08838410 34354,6917.885,95.438,541.013,538.488,0.0
51748.0,STARLINK-3501,PAYLOAD,2022-10-03 02:45:25,15.08835064,0.0001979,53.217,176.6465,48.9125,311.2038,4.0257e-05,3.52e-06,0.0,0 STARLINK-3501,1 51748U 22016AL  22276.11487993  .00000352  00000-0  40257-4 0  9999,2 51748  53.2170 176.6465 0001979  48.9125 311.2038 15.08835064 35517,6917.895,95.438,541.13,538.391,0.0
51748.0,STARLINK-3501,PAYLOAD,2022-10-03 10:42:20,15.08853098,0.0001976,53.2171,175.1595,49.9044,310.2121,0.00013904,1.926e-05,0.0,0 STARLINK-3501,1 51748U 22016AL  22276.44606501  .00001926  00000-0  13904-3 0  9999,2 51748  53.2171 175.1595 0001976  49.9044 310.2121 15.08853098 35568,6917.84,95.437,541.072,538.3380000000002,0.0
51748.0,STARLINK-3501,PAYLOAD,2022-10-03 23:25:25,15.08849497,0.0001973,53.217,172.783,43.0309,317.0837,0.0001121,1.497e-05,0.0,0 STARLINK-3501,1 51748U 22016AL  22276.97598540  .00001497  00000-0  11210-3 0  9991,2 51748  53.2170 172.7830 0001973  43.0309 317.0837 15.08849497 35644,6917.851,95.437,541.081,538.351,0.0
51748.0,STARLINK-3501,PAYLOAD,2022-10-04 10:33:06,15.08853266,0.0001766,53.2174,170.7006,51.2147,308.9003,0.00010714,1.418e-05,0.0,0 STARLINK-3501,1 51748U 22016AL  22277.43966021  .00001418  00000-0  10714-3 0  9997,2 51748  53.2174 170.7006 0001766  51.2147 308.9003 15.08853266 34655,6917.84,95.437,540.927,538.4830000000002,0.0
51748.0,STARLINK-3501,PAYLOAD,2022-10-04 23:16:12,15.08843567,0.0001439,53.2162,168.32,60.7166,299.397,6.7291e-05,7.83e-06,0.0,0 STARLINK-3501,1 51748U 22016AL  22277.96958770  .00000783  00000-0  67291-4 0  9994,2 51748  53.2162 168.3200 0001439  60.7166 299.3970 15.08843567 35799,6917.869000000002,95.437,540.73,538.739,0.0
51748.0,STARLINK-3501,PAYLOAD,2022-10-05 10:23:55,15.08834517,0.0002056999999999,53.2175,166.2387,49.6527,310.4645,-2.3791e-05,-6.67e-06,0.0,0 STARLINK-3501,1 51748U 22016AL  22278.43327759 -.00000667  00000-0 -23791-4 0  9994,2 51748  53.2175 166.2387 0002057  49.6527 310.4645 15.08834517 34800,6917.897,95.438,541.185,538.339,0.0
51748.0,STARLINK-3501,PAYLOAD,2022-10-05 19:56:13,15.08838333,0.0001902,53.2173,164.4547,50.9369,309.1792,-7.6598e-05,-1.507e-05,0.0,0 STARLINK-3501,1 51748U 22016AL  22278.83071590 -.00001507  00000-0 -76598-4 0  9994,2 51748  53.2173 164.4547 0001902  50.9369 309.1792 15.08838333 34867,6917.885,95.438,541.066,538.435,0.0
51748.0,STARLINK-3501,PAYLOAD,2022-10-06 02:17:46,15.08828676,0.0001940999999999,53.217,163.2653,49.3909,310.7252,-7.3932e-05,-1.464e-05,0.0,0 STARLINK-3501,1 51748U 22016AL  22279.09568209 -.00001464  00000-0 -73932-4 0  9992,2 51748  53.2170 163.2653 0001941  49.3909 310.7252 15.08828676 34907,6917.915,95.438,541.123,538.437,0.0
51748.0,STARLINK-3501,PAYLOAD,2022-10-06 19:47:01,15.08832844,0.0001911999999999,53.2168,159.9951,45.1834,314.9313,7.0099e-05,8.27e-06,0.0,0 STARLINK-3501,1 51748U 22016AL  22279.82431733  .00000827  00000-0  70099-4 0  9995,2 51748  53.2168 159.9951 0001912  45.1834 314.9313 15.08832844 36072,6917.901999999999,95.438,541.09,538.445,0.0
51748.0,STARLINK-3501,PAYLOAD,2022-10-07 08:30:05,15.08843185,0.0001903,53.2167,157.6157,47.0566,313.0585,0.00014908,2.085e-05,0.0,0 STARLINK-3501,1 51748U 22016AL  22280.35423060  .00002085  00000-0  14908-3 0  9993,2 51748  53.2167 157.6157 0001903  47.0566 313.0585 15.08843185 35099,6917.871,95.437,541.052,538.419,0.0
51748.0,STARLINK-3501,PAYLOAD,2022-10-07 19:37:48,15.08828309,0.0002036,53.2174,155.5356,56.2625,303.8561,0.00016513,2.34e-05,0.0,0 STARLINK-3501,1 51748U 22016AL  22280.81792178  .00002340  00000-0  16513-3 0  9991,2 51748  53.2174 155.5356 0002036  56.2625 303.8561 15.08828309 36229,6917.916,95.438,541.19,538.373,0.0
51748.0,STARLINK-3501,PAYLOAD,2022-10-07 21:13:11,15.08832659,0.000185,53.2173,155.2377,51.1033,309.0124,9.5238e-05,1.228e-05,0.0,0 STARLINK-3501,1 51748U 22016AL  22280.88416016  .00001228  00000-0  95238-4 0  9998,2 51748  53.2173 155.2377 0001850  51.1033 309.0124 15.08832659 35177,6917.903,95.438,541.048,538.488,0.0
51748.0,STARLINK-3501,PAYLOAD,2022-10-08 00:23:57,15.08837041,0.0001675,53.2168,154.6425,65.0642,295.0524,8.778e-05,1.109e-05,0.0,0 STARLINK-3501,1 51748U 22016AL  22281.01663809  .00001109  00000-0  87780-4 0  9999,2 51748  53.2168 154.6425 0001675  65.0642 295.0524 15.08837041 36251,6917.889,95.438,540.913,538.596,0.0
51748.0,STARLINK-3501,PAYLOAD,2022-10-08 08:20:53,15.08835913,0.0001786,53.2167,153.1553,54.99100000000001,305.125,0.00010835,1.437e-05,0.0,0 STARLINK-3501,1 51748U 22016AL  22281.34783859  .00001437  00000-0  10835-3 0  9993,2 51748  53.2167 153.1553 0001786  54.9910 305.1250 15.08835913 35247,6917.893,95.438,540.993,538.5219999999998,0.0
51748.0,STARLINK-3501,PAYLOAD,2022-10-08 19:28:36,15.08846287,0.0001621,53.2148,151.0728,54.3913,305.723,-0.00023525,-4.031e-05,0.0,0 STARLINK-3501,1 51748U 22016AL  22281.81152893 -.00004031  00000-0 -23525-3 0  9998,2 51748  53.2148 151.0728 0001621  54.3913 305.7230 15.08846287 36377,6917.861,95.437,540.8480000000002,538.605,0.0
51748.0,STARLINK-3501,PAYLOAD,2022-10-09 00:14:45,15.08837235,0.0001781,53.2166,150.1811,54.0416,306.0742,6.6189e-06,-1.83e-06,0.0,0 STARLINK-3501,1 51748U 22016AL  22282.01024618 -.00000183  00000-0  66189-5 0  9992,2 51748  53.2166 150.1811 0001781  54.0416 306.0742 15.08837235 35343,6917.889,95.438,540.986,538.5219999999998,0.0
51748.0,STARLINK-3501,PAYLOAD,2022-10-09 20:54:45,15.08843014,0.0001909999999999,53.2172,146.3159,56.0989,304.0185,9.0192e-05,1.148e-05,0.0,0 STARLINK-3501,1 51748U 22016AL  22282.87136115  .00001148  00000-0  90192-4 0  9993,2 51748  53.2172 146.3159 0001910  56.0989 304.0185 15.08843014 35478,6917.871,95.437,541.057,538.415,0.0
51748.0,STARLINK-3501,PAYLOAD,2022-10-10 01:40:54,15.08849484,0.0001947,53.2155,145.4221,47.0883,313.0273,0.00013119,1.801e-05,0.0,0 STARLINK-3501,1 51748U 22016AL  22283.07007652  .00001801  00000-0  13119-3 0  9998,2 51748  53.2155 145.4221 0001947  47.0883 313.0273 15.08849484 36568,6917.851,95.437,541.063,538.369,0.0
51748.0,STARLINK-3501,PAYLOAD,2022-10-10 08:02:27,15.08845231,0.0002008999999999,53.216,144.2324,46.5333,313.5826,9.4822e-05,1.221e-05,0.0,0 STARLINK-3501,1 51748U 22016AL  22283.33503916  .00001221  00000-0  94822-4 0  9998,2 51748  53.2160 144.2324 0002009  46.5333 313.5826 15.08845231 35541,6917.864000000001,95.437,541.119,538.34,0.0
51748.0,STARLINK-3501,PAYLOAD,2022-10-10 17:34:46,15.08835612,0.0002006999999999,53.2158,142.4492,47.5227,312.5934,7.1803e-05,8.55e-06,0.0,0 STARLINK-3501,1 51748U 22016AL  22283.73248815  .00000855  00000-0  71803-4 0  9992,2 51748  53.2158 142.4492 0002007  47.5227 312.5934 15.08835612 36660,6917.894,95.438,541.1469999999998,538.37,0.0
